{
  "type": "FeatureCollection",
  "features": [
    {
      "type": "Feature",
      "properties": {
        "norad_id": 35797,
        "name": "IRIDIUM 33 DEB",
        "group": "iridium-33-debris",
        "lat": 62.632199410119746,
        "lon": -28.835931535562864,
        "alt_km": 605.9631336670118,
        "timestamp": "2025-12-25T14:48:25.158268+00:00",
        "meta_object_name": "IRIDIUM 33 DEB",
        "meta_object_id": "1997-051SF",
        "meta_epoch": "2025-12-25T04:48:32.062176",
        "meta_mean_motion": 14.83087004,
        "meta_eccentricity": 0.00151422,
        "meta_inclination": 86.3371,
        "meta_ra_of_asc_node": 324.2466,
        "meta_arg_of_pericenter": 108.6967,
        "meta_mean_anomaly": 251.5901,
        "meta_ephemeris_type": 0,
        "meta_classification_type": "U",
        "meta_norad_cat_id": 35797,
        "meta_element_set_no": 999,
        "meta_rev_at_epoch": 87525,
        "meta_bstar": 0.0019466252,
        "meta_mean_motion_dot": 0.00015924,
        "meta_mean_motion_ddot": 0,
        "tle_line1": "1 35797U 97051SF  25359.20037109  .00015924  00000+0  19466-2 0  9997",
        "tle_line2": "2 35797  86.3371 324.2466 0015142 108.6967 251.5901 14.83087004875253"
      },
      "geometry": {
        "type": "Point",
        "coordinates": [
          -28.835931535562864,
          62.632199410119746
        ]
      }
    },
    {
      "type": "Feature",
      "properties": {
        "norad_id": 35806,
        "name": "IRIDIUM 33 DEB",
        "group": "iridium-33-debris",
        "lat": -85.52506541037707,
        "lon": -110.24538664674836,
        "alt_km": 715.526168119859,
        "timestamp": "2025-12-25T14:48:25.158277+00:00",
        "meta_object_name": "IRIDIUM 33 DEB",
        "meta_object_id": "1997-051SQ",
        "meta_epoch": "2025-12-23T18:44:28.886496",
        "meta_mean_motion": 14.57443021,
        "meta_eccentricity": 0.00152726,
        "meta_inclination": 86.3434,
        "meta_ra_of_asc_node": 15.7661,
        "meta_arg_of_pericenter": 41.8859,
        "meta_mean_anomaly": 318.3515,
        "meta_ephemeris_type": 0,
        "meta_classification_type": "U",
        "meta_norad_cat_id": 35806,
        "meta_element_set_no": 999,
        "meta_rev_at_epoch": 86485,
        "meta_bstar": 0.0011018111,
        "meta_mean_motion_dot": 5.028e-05,
        "meta_mean_motion_ddot": 0,
        "tle_line1": "1 35806U 97051SQ  25357.78088989  .00005028  00000+0  11018-2 0  9990",
        "tle_line2": "2 35806  86.3434  15.7661 0015272  41.8859 318.3515 14.57443021864858"
      },
      "geometry": {
        "type": "Point",
        "coordinates": [
          -110.24538664674836,
          -85.52506541037707
        ]
      }
    },
    {
      "type": "Feature",
      "properties": {
        "norad_id": 35809,
        "name": "IRIDIUM 33 DEB",
        "group": "iridium-33-debris",
        "lat": 44.63931183311775,
        "lon": -26.88097781259859,
        "alt_km": 644.5284999855357,
        "timestamp": "2025-12-25T14:48:25.158286+00:00",
        "meta_object_name": "IRIDIUM 33 DEB",
        "meta_object_id": "1997-051ST",
        "meta_epoch": "2025-12-21T16:13:39.380736",
        "meta_mean_motion": 14.75870585,
        "meta_eccentricity": 0.00102664,
        "meta_inclination": 86.3279,
        "meta_ra_of_asc_node": 331.2775,
        "meta_arg_of_pericenter": 205.8578,
        "meta_mean_anomaly": 154.2129,
        "meta_ephemeris_type": 0,
        "meta_classification_type": "U",
        "meta_norad_cat_id": 35809,
        "meta_element_set_no": 999,
        "meta_rev_at_epoch": 86939,
        "meta_bstar": 0.0013721853,
        "meta_mean_motion_dot": 9.452e-05,
        "meta_mean_motion_ddot": 0,
        "tle_line1": "1 35809U 97051ST  25355.67615024  .00009452  00000+0  13722-2 0  9994",
        "tle_line2": "2 35809  86.3279 331.2775 0010266 205.8578 154.2129 14.75870585869399"
      },
      "geometry": {
        "type": "Point",
        "coordinates": [
          -26.88097781259859,
          44.63931183311775
        ]
      }
    },
    {
      "type": "Feature",
      "properties": {
        "norad_id": 35846,
        "name": "IRIDIUM 33 DEB",
        "group": "iridium-33-debris",
        "lat": 64.8569295261644,
        "lon": -134.42023547861774,
        "alt_km": 728.0719644930878,
        "timestamp": "2025-12-25T14:48:25.158296+00:00",
        "meta_object_name": "IRIDIUM 33 DEB",
        "meta_object_id": "1997-051SW",
        "meta_epoch": "2025-12-24T21:38:12.688800",
        "meta_mean_motion": 14.43199531,
        "meta_eccentricity": 0.0019834,
        "meta_inclination": 86.3738,
        "meta_ra_of_asc_node": 53.6502,
        "meta_arg_of_pericenter": 132.6503,
        "meta_mean_anomaly": 227.6373,
        "meta_ephemeris_type": 0,
        "meta_classification_type": "U",
        "meta_norad_cat_id": 35846,
        "meta_element_set_no": 999,
        "meta_rev_at_epoch": 71504,
        "meta_bstar": 0.00052874,
        "meta_mean_motion_dot": 1.8e-05,
        "meta_mean_motion_ddot": 0,
        "tle_line1": "1 35846U 97051SW  25358.90153575  .00001800  00000+0  52874-3 0  9993",
        "tle_line2": "2 35846  86.3738  53.6502 0019834 132.6503 227.6373 14.43199531715046"
      },
      "geometry": {
        "type": "Point",
        "coordinates": [
          -134.42023547861774,
          64.8569295261644
        ]
      }
    },
    {
      "type": "Feature",
      "properties": {
        "norad_id": 35848,
        "name": "IRIDIUM 33 DEB",
        "group": "iridium-33-debris",
        "lat": 46.430257385243294,
        "lon": -173.47421272953648,
        "alt_km": 622.5685688738959,
        "timestamp": "2025-12-25T14:48:25.158305+00:00",
        "meta_object_name": "IRIDIUM 33 DEB",
        "meta_object_id": "1997-051SY",
        "meta_epoch": "2025-12-23T08:36:58.937472",
        "meta_mean_motion": 14.78845827,
        "meta_eccentricity": 0.00091619,
        "meta_inclination": 86.3897,
        "meta_ra_of_asc_node": 11.347,
        "meta_arg_of_pericenter": 152.9599,
        "meta_mean_anomaly": 207.2101,
        "meta_ephemeris_type": 0,
        "meta_classification_type": "U",
        "meta_norad_cat_id": 35848,
        "meta_element_set_no": 999,
        "meta_rev_at_epoch": 66847,
        "meta_bstar": 0.0014935306,
        "meta_mean_motion_dot": 0.00011029,
        "meta_mean_motion_ddot": 0,
        "tle_line1": "1 35848U 97051SY  25357.35901548  .00011029  00000+0  14935-2 0  9993",
        "tle_line2": "2 35848  86.3897  11.3470 0009161 152.9599 207.2101 14.78845827668472"
      },
      "geometry": {
        "type": "Point",
        "coordinates": [
          -173.47421272953648,
          46.430257385243294
        ]
      }
    },
    {
      "type": "Feature",
      "properties": {
        "norad_id": 35850,
        "name": "IRIDIUM 33 DEB",
        "group": "iridium-33-debris",
        "lat": 72.18266234294857,
        "lon": 146.93084075985453,
        "alt_km": 618.9369781508822,
        "timestamp": "2025-12-25T14:48:25.158314+00:00",
        "meta_object_name": "IRIDIUM 33 DEB",
        "meta_object_id": "1997-051TA",
        "meta_epoch": "2025-12-23T16:51:33.482304",
        "meta_mean_motion": 14.79050016,
        "meta_eccentricity": 0.00107739,
        "meta_inclination": 86.3501,
        "meta_ra_of_asc_node": 339.2572,
        "meta_arg_of_pericenter": 146.4147,
        "meta_mean_anomaly": 213.7758,
        "meta_ephemeris_type": 0,
        "meta_classification_type": "U",
        "meta_norad_cat_id": 35850,
        "meta_element_set_no": 999,
        "meta_rev_at_epoch": 71519,
        "meta_bstar": 0.001670653,
        "meta_mean_motion_dot": 0.00012399,
        "meta_mean_motion_ddot": 0,
        "tle_line1": "1 35850U 97051TA  25357.70247086  .00012399  00000+0  16707-2 0  9995",
        "tle_line2": "2 35850  86.3501 339.2572 0010773 146.4147 213.7758 14.79050016715191"
      },
      "geometry": {
        "type": "Point",
        "coordinates": [
          146.93084075985453,
          72.18266234294857
        ]
      }
    },
    {
      "type": "Feature",
      "properties": {
        "norad_id": 35915,
        "name": "IRIDIUM 33 DEB",
        "group": "iridium-33-debris",
        "lat": 43.10131644955678,
        "lon": 153.64240063485917,
        "alt_km": 614.0013345130201,
        "timestamp": "2025-12-25T14:48:25.158323+00:00",
        "meta_object_name": "IRIDIUM 33 DEB",
        "meta_object_id": "1997-051TY",
        "meta_epoch": "2025-12-22T16:27:49.238784",
        "meta_mean_motion": 14.80964903,
        "meta_eccentricity": 0.00122455,
        "meta_inclination": 86.3447,
        "meta_ra_of_asc_node": 338.4114,
        "meta_arg_of_pericenter": 150.5648,
        "meta_mean_anomaly": 209.6266,
        "meta_ephemeris_type": 0,
        "meta_classification_type": "U",
        "meta_norad_cat_id": 35915,
        "meta_element_set_no": 999,
        "meta_rev_at_epoch": 8233,
        "meta_bstar": 0.0017914035,
        "meta_mean_motion_dot": 0.00013917,
        "meta_mean_motion_ddot": 0,
        "tle_line1": "1 35915U 97051TY  25356.68598656  .00013917  00000+0  17914-2 0  9993",
        "tle_line2": "2 35915  86.3447 338.4114 0012245 150.5648 209.6266 14.80964903 82335"
      },
      "geometry": {
        "type": "Point",
        "coordinates": [
          153.64240063485917,
          43.10131644955678
        ]
      }
    }
  ]
}